{
  "type": "FeatureCollection",
  "features": [
    {
      "type": "Feature",
      "properties": {
        "norad_id": 43246,
        "name": "BEIDOU-3 M10 (C30)",
        "group": "gnss",
        "lat": 51.610428978901595,
        "lon": 10.875941016593774,
        "alt_km": 21518.30816857103,
        "timestamp": "2025-12-23T22:42:33.227410+00:00",
        "meta_object_name": "BEIDOU-3 M10 (C30)",
        "meta_object_id": "2018-029B",
        "meta_epoch": "2025-12-22T05:22:40.236384",
        "meta_mean_motion": 1.86229249,
        "meta_eccentricity": 0.0004309,
        "meta_inclination": 54.3545,
        "meta_ra_of_asc_node": 306.1644,
        "meta_arg_of_pericenter": 3.3076,
        "meta_mean_anomaly": 356.6961,
        "meta_ephemeris_type": 0,
        "meta_classification_type": "U",
        "meta_norad_cat_id": 43246,
        "meta_element_set_no": 999,
        "meta_rev_at_epoch": 5258,
        "meta_bstar": 0,
        "meta_mean_motion_dot": -5.7e-07,
        "meta_mean_motion_ddot": 0,
        "tle_line1": "1 43246U 18029B   25356.22407681 -.00000057  00000+0  00000+0 0  9991",
        "tle_line2": "2 43246  54.3545 306.1644 0004309   3.3076 356.6961  1.86229249 52585"
      },
      "geometry": {
        "type": "Point",
        "coordinates": [
          10.875941016593774,
          51.610428978901595
        ]
      }
    },
    {
      "type": "Feature",
      "properties": {
        "norad_id": 43286,
        "name": "IRNSS-1I",
        "group": "gnss",
        "lat": 22.37092291007224,
        "lon": 124.35207346032593,
        "alt_km": 35848.19852456287,
        "timestamp": "2025-12-23T22:42:33.227421+00:00",
        "meta_object_name": "IRNSS-1I",
        "meta_object_id": "2018-035A",
        "meta_epoch": "2025-12-20T19:47:21.482880",
        "meta_mean_motion": 1.00273791,
        "meta_eccentricity": 0.0021634,
        "meta_inclination": 29.167,
        "meta_ra_of_asc_node": 76.974,
        "meta_arg_of_pericenter": 186.9634,
        "meta_mean_anomaly": 177.5378,
        "meta_ephemeris_type": 0,
        "meta_classification_type": "U",
        "meta_norad_cat_id": 43286,
        "meta_element_set_no": 999,
        "meta_rev_at_epoch": 2829,
        "meta_bstar": 0,
        "meta_mean_motion_dot": 8.3e-07,
        "meta_mean_motion_ddot": 0,
        "tle_line1": "1 43286U 18035A   25354.82455420  .00000083  00000+0  00000+0 0  9998",
        "tle_line2": "2 43286  29.1670  76.9740 0021634 186.9634 177.5378  1.00273791 28295"
      },
      "geometry": {
        "type": "Point",
        "coordinates": [
          124.35207346032593,
          22.37092291007224
        ]
      }
    },
    {
      "type": "Feature",
      "properties": {
        "norad_id": 43508,
        "name": "COSMOS 2527 (756)",
        "group": "gnss",
        "lat": -63.57517211132564,
        "lon": 13.263138079787641,
        "alt_km": 19122.50953143734,
        "timestamp": "2025-12-23T22:42:33.227433+00:00",
        "meta_object_name": "COSMOS 2527 (756)",
        "meta_object_id": "2018-053A",
        "meta_epoch": "2025-12-23T02:40:53.485824",
        "meta_mean_motion": 2.13102391,
        "meta_eccentricity": 0.00089977,
        "meta_inclination": 65.4775,
        "meta_ra_of_asc_node": 79.785,
        "meta_arg_of_pericenter": 227.5336,
        "meta_mean_anomaly": 132.4355,
        "meta_ephemeris_type": 0,
        "meta_classification_type": "U",
        "meta_norad_cat_id": 43508,
        "meta_element_set_no": 999,
        "meta_rev_at_epoch": 5852,
        "meta_bstar": 0,
        "meta_mean_motion_dot": 1e-08,
        "meta_mean_motion_ddot": 0,
        "tle_line1": "1 43508U 18053A   25357.11173016  .00000001  00000+0  00000+0 0  9998",
        "tle_line2": "2 43508  65.4775  79.7850 0008997 227.5336 132.4355  2.13102391 58528"
      },
      "geometry": {
        "type": "Point",
        "coordinates": [
          13.263138079787641,
          -63.57517211132564
        ]
      }
    },
    {
      "type": "Feature",
      "properties": {
        "norad_id": 43539,
        "name": "BEIDOU-2 IGSO-7 (C16)",
        "group": "gnss",
        "lat": 16.005941517028553,
        "lon": 176.08932436871459,
        "alt_km": 36106.137103749585,
        "timestamp": "2025-12-23T22:42:33.227444+00:00",
        "meta_object_name": "BEIDOU-2 IGSO-7 (C16)",
        "meta_object_id": "2018-057A",
        "meta_epoch": "2025-12-15T07:47:07.120608",
        "meta_mean_motion": 1.00256546,
        "meta_eccentricity": 0.00926218,
        "meta_inclination": 55.1766,
        "meta_ra_of_asc_node": 164.6485,
        "meta_arg_of_pericenter": 235.2644,
        "meta_mean_anomaly": 271.8458,
        "meta_ephemeris_type": 0,
        "meta_classification_type": "U",
        "meta_norad_cat_id": 43539,
        "meta_element_set_no": 999,
        "meta_rev_at_epoch": 2728,
        "meta_bstar": 0,
        "meta_mean_motion_dot": -2.3e-07,
        "meta_mean_motion_ddot": 0,
        "tle_line1": "1 43539U 18057A   25349.32438797 -.00000023  00000+0  00000+0 0  9995",
        "tle_line2": "2 43539  55.1766 164.6485 0092621 235.2644 271.8458  1.00256546 27289"
      },
      "geometry": {
        "type": "Point",
        "coordinates": [
          176.08932436871459,
          16.005941517028553
        ]
      }
    },
    {
      "type": "Feature",
      "properties": {
        "norad_id": 43564,
        "name": "GSAT0221 (GALILEO 25)",
        "group": "gnss",
        "lat": 11.87866175382878,
        "lon": 158.7152278905101,
        "alt_km": 23230.845750353597,
        "timestamp": "2025-12-23T22:42:33.227462+00:00",
        "meta_object_name": "GSAT0221 (GALILEO 25)",
        "meta_object_id": "2018-060A",
        "meta_epoch": "2025-12-23T02:08:34.035648",
        "meta_mean_motion": 1.70475773,
        "meta_eccentricity": 0.00067192,
        "meta_inclination": 57.2255,
        "meta_ra_of_asc_node": 346.5383,
        "meta_arg_of_pericenter": 286.3445,
        "meta_mean_anomaly": 73.589,
        "meta_ephemeris_type": 0,
        "meta_classification_type": "U",
        "meta_norad_cat_id": 43564,
        "meta_element_set_no": 999,
        "meta_rev_at_epoch": 4616,
        "meta_bstar": 0,
        "meta_mean_motion_dot": -6.3e-07,
        "meta_mean_motion_ddot": 0,
        "tle_line1": "1 43564U 18060A   25357.08928282 -.00000063  00000+0  00000+0 0  9996",
        "tle_line2": "2 43564  57.2255 346.5383 0006719 286.3445  73.5890  1.70475773 46167"
      },
      "geometry": {
        "type": "Point",
        "coordinates": [
          158.7152278905101,
          11.87866175382878
        ]
      }
    },
    {
      "type": "Feature",
      "properties": {
        "norad_id": 43565,
        "name": "GSAT0222 (GALILEO 26)",
        "group": "gnss",
        "lat": 25.88701462803122,
        "lon": 4.722242567898937,
        "alt_km": 23229.014837387105,
        "timestamp": "2025-12-23T22:42:33.227476+00:00",
        "meta_object_name": "GSAT0222 (GALILEO 26)",
        "meta_object_id": "2018-060B",
        "meta_epoch": "2025-12-22T03:15:04.306464",
        "meta_mean_motion": 1.70475514,
        "meta_eccentricity": 0.000605,
        "meta_inclination": 57.229,
        "meta_ra_of_asc_node": 346.567,
        "meta_arg_of_pericenter": 266.9186,
        "meta_mean_anomaly": 93.0201,
        "meta_ephemeris_type": 0,
        "meta_classification_type": "U",
        "meta_norad_cat_id": 43565,
        "meta_element_set_no": 999,
        "meta_rev_at_epoch": 4619,
        "meta_bstar": 0,
        "meta_mean_motion_dot": -6.5e-07,
        "meta_mean_motion_ddot": 0,
        "tle_line1": "1 43565U 18060B   25356.13546651 -.00000065  00000+0  00000+0 0  9990",
        "tle_line2": "2 43565  57.2290 346.5670 0006050 266.9186  93.0201  1.70475514 46199"
      },
      "geometry": {
        "type": "Point",
        "coordinates": [
          4.722242567898937,
          25.88701462803122
        ]
      }
    },
    {
      "type": "Feature",
      "properties": {
        "norad_id": 43566,
        "name": "GSAT0219 (GALILEO 23)",
        "group": "gnss",
        "lat": -54.483158823710916,
        "lon": -129.0009563692245,
        "alt_km": 23213.697895189947,
        "timestamp": "2025-12-23T22:42:33.227487+00:00",
        "meta_object_name": "GSAT0219 (GALILEO 23)",
        "meta_object_id": "2018-060C",
        "meta_epoch": "2025-12-22T08:33:30.157056",
        "meta_mean_motion": 1.70475755,
        "meta_eccentricity": 0.00058833,
        "meta_inclination": 57.2283,
        "meta_ra_of_asc_node": 346.5626,
        "meta_arg_of_pericenter": 291.1394,
        "meta_mean_anomaly": 68.8055,
        "meta_ephemeris_type": 0,
        "meta_classification_type": "U",
        "meta_norad_cat_id": 43566,
        "meta_element_set_no": 999,
        "meta_rev_at_epoch": 4617,
        "meta_bstar": 0,
        "meta_mean_motion_dot": -6.5e-07,
        "meta_mean_motion_ddot": 0,
        "tle_line1": "1 43566U 18060C   25356.35659904 -.00000065  00000+0  00000+0 0  9991",
        "tle_line2": "2 43566  57.2283 346.5626 0005883 291.1394  68.8055  1.70475755 46179"
      },
      "geometry": {
        "type": "Point",
        "coordinates": [
          -129.0009563692245,
          -54.483158823710916
        ]
      }
    }
  ]
}